{
  "type": "FeatureCollection",
  "features": [
    {
      "type": "Feature",
      "properties": {
        "norad_id": 66933,
        "name": "STARLINK-36157",
        "group": "last-30-days",
        "lat": -52.951887529796366,
        "lon": -109.44479537936192,
        "alt_km": 392.84090913443924,
        "timestamp": "2025-12-25T09:48:51.006915+00:00",
        "meta_object_name": "STARLINK-36157",
        "meta_object_id": "2025-286J",
        "meta_epoch": "2025-12-25T04:00:01.998720",
        "meta_mean_motion": 15.61302314,
        "meta_eccentricity": 0.0001214,
        "meta_inclination": 53.1598,
        "meta_ra_of_asc_node": 348.424,
        "meta_arg_of_pericenter": 96.163,
        "meta_mean_anomaly": 247.9758,
        "meta_ephemeris_type": 0,
        "meta_classification_type": "U",
        "meta_norad_cat_id": 66933,
        "meta_element_set_no": 999,
        "meta_rev_at_epoch": 398,
        "meta_bstar": -0.026562,
        "meta_mean_motion_dot": -0.02017069,
        "meta_mean_motion_ddot": 0,
        "tle_line1": "1 66933U 25286J   25359.16668980 -.02017069  00000+0 -26562-1 0  9996",
        "tle_line2": "2 66933  53.1598 348.4240 0001214  96.1630 247.9758 15.61302314  3986"
      },
      "geometry": {
        "type": "Point",
        "coordinates": [
          -109.44479537936192,
          -52.951887529796366
        ]
      }
    },
    {
      "type": "Feature",
      "properties": {
        "norad_id": 66934,
        "name": "STARLINK-36153",
        "group": "last-30-days",
        "lat": -53.08842806046328,
        "lon": -106.27465615096284,
        "alt_km": 392.7447404768518,
        "timestamp": "2025-12-25T09:48:51.006925+00:00",
        "meta_object_name": "STARLINK-36153",
        "meta_object_id": "2025-286K",
        "meta_epoch": "2025-12-25T04:00:01.998720",
        "meta_mean_motion": 15.61306265,
        "meta_eccentricity": 0.0001059,
        "meta_inclination": 53.1601,
        "meta_ra_of_asc_node": 348.4202,
        "meta_arg_of_pericenter": 95.9163,
        "meta_mean_anomaly": 250.1391,
        "meta_ephemeris_type": 0,
        "meta_classification_type": "U",
        "meta_norad_cat_id": 66934,
        "meta_element_set_no": 999,
        "meta_rev_at_epoch": 398,
        "meta_bstar": -0.026651,
        "meta_mean_motion_dot": -0.02023152,
        "meta_mean_motion_ddot": 0,
        "tle_line1": "1 66934U 25286K   25359.16668980 -.02023152  00000+0 -26651-1 0  9996",
        "tle_line2": "2 66934  53.1601 348.4202 0001059  95.9163 250.1391 15.61306265  3983"
      },
      "geometry": {
        "type": "Point",
        "coordinates": [
          -106.27465615096284,
          -53.08842806046328
        ]
      }
    },
    {
      "type": "Feature",
      "properties": {
        "norad_id": 66935,
        "name": "STARLINK-36127",
        "group": "last-30-days",
        "lat": -53.13959237866776,
        "lon": -103.09689144687145,
        "alt_km": 392.75542367174785,
        "timestamp": "2025-12-25T09:48:51.006935+00:00",
        "meta_object_name": "STARLINK-36127",
        "meta_object_id": "2025-286L",
        "meta_epoch": "2025-12-25T04:00:01.998720",
        "meta_mean_motion": 15.61309367,
        "meta_eccentricity": 0.0001066,
        "meta_inclination": 53.1599,
        "meta_ra_of_asc_node": 348.4155,
        "meta_arg_of_pericenter": 89.3462,
        "meta_mean_anomaly": 258.6229,
        "meta_ephemeris_type": 0,
        "meta_classification_type": "U",
        "meta_norad_cat_id": 66935,
        "meta_element_set_no": 999,
        "meta_rev_at_epoch": 398,
        "meta_bstar": -0.026674,
        "meta_mean_motion_dot": -0.02024866,
        "meta_mean_motion_ddot": 0,
        "tle_line1": "1 66935U 25286L   25359.16668980 -.02024866  00000+0 -26674-1 0  9995",
        "tle_line2": "2 66935  53.1599 348.4155 0001066  89.3462 258.6229 15.61309367  3983"
      },
      "geometry": {
        "type": "Point",
        "coordinates": [
          -103.09689144687145,
          -53.13959237866776
        ]
      }
    },
    {
      "type": "Feature",
      "properties": {
        "norad_id": 66936,
        "name": "STARLINK-36160",
        "group": "last-30-days",
        "lat": -53.10590372971558,
        "lon": -99.91139467596024,
        "alt_km": 392.8510984450413,
        "timestamp": "2025-12-25T09:48:51.006946+00:00",
        "meta_object_name": "STARLINK-36160",
        "meta_object_id": "2025-286M",
        "meta_epoch": "2025-12-25T04:00:01.998720",
        "meta_mean_motion": 15.61308234,
        "meta_eccentricity": 0.0001199,
        "meta_inclination": 53.1599,
        "meta_ra_of_asc_node": 348.4124,
        "meta_arg_of_pericenter": 90.8731,
        "meta_mean_anomaly": 259.0148,
        "meta_ephemeris_type": 0,
        "meta_classification_type": "U",
        "meta_norad_cat_id": 66936,
        "meta_element_set_no": 999,
        "meta_rev_at_epoch": 398,
        "meta_bstar": -0.026692,
        "meta_mean_motion_dot": -0.02026103,
        "meta_mean_motion_ddot": 0,
        "tle_line1": "1 66936U 25286M   25359.16668980 -.02026103  00000+0 -26692-1 0  9992",
        "tle_line2": "2 66936  53.1599 348.4124 0001199  90.8731 259.0148 15.61308234  3980"
      },
      "geometry": {
        "type": "Point",
        "coordinates": [
          -99.91139467596024,
          -53.10590372971558
        ]
      }
    },
    {
      "type": "Feature",
      "properties": {
        "norad_id": 66937,
        "name": "STARLINK-36165",
        "group": "last-30-days",
        "lat": -52.98703947554872,
        "lon": -96.73645514065845,
        "alt_km": 392.80145683189767,
        "timestamp": "2025-12-25T09:48:51.006958+00:00",
        "meta_object_name": "STARLINK-36165",
        "meta_object_id": "2025-286N",
        "meta_epoch": "2025-12-25T04:00:01.998720",
        "meta_mean_motion": 15.61307018,
        "meta_eccentricity": 0.0001132,
        "meta_inclination": 53.1598,
        "meta_ra_of_asc_node": 348.4077,
        "meta_arg_of_pericenter": 96.6346,
        "meta_mean_anomaly": 255.1721,
        "meta_ephemeris_type": 0,
        "meta_classification_type": "U",
        "meta_norad_cat_id": 66937,
        "meta_element_set_no": 999,
        "meta_rev_at_epoch": 398,
        "meta_bstar": -0.026677,
        "meta_mean_motion_dot": -0.02024947,
        "meta_mean_motion_ddot": 0,
        "tle_line1": "1 66937U 25286N   25359.16668980 -.02024947  00000+0 -26677-1 0  9990",
        "tle_line2": "2 66937  53.1598 348.4077 0001132  96.6346 255.1721 15.61307018  3983"
      },
      "geometry": {
        "type": "Point",
        "coordinates": [
          -96.73645514065845,
          -52.98703947554872
        ]
      }
    },
    {
      "type": "Feature",
      "properties": {
        "norad_id": 66938,
        "name": "STARLINK-36155",
        "group": "last-30-days",
        "lat": -52.78474620679233,
        "lon": -93.59418154370569,
        "alt_km": 392.7838849519512,
        "timestamp": "2025-12-25T09:48:51.006969+00:00",
        "meta_object_name": "STARLINK-36155",
        "meta_object_id": "2025-286P",
        "meta_epoch": "2025-12-25T04:00:01.998720",
        "meta_mean_motion": 15.61304946,
        "meta_eccentricity": 0.000112,
        "meta_inclination": 53.1598,
        "meta_ra_of_asc_node": 348.4032,
        "meta_arg_of_pericenter": 85.7325,
        "meta_mean_anomaly": 267.9905,
        "meta_ephemeris_type": 0,
        "meta_classification_type": "U",
        "meta_norad_cat_id": 66938,
        "meta_element_set_no": 999,
        "meta_rev_at_epoch": 398,
        "meta_bstar": -0.026619,
        "meta_mean_motion_dot": -0.02020954,
        "meta_mean_motion_ddot": 0,
        "tle_line1": "1 66938U 25286P   25359.16668980 -.02020954  00000+0 -26619-1 0  9991",
        "tle_line2": "2 66938  53.1598 348.4032 0001120  85.7325 267.9905 15.61304946  3980"
      },
      "geometry": {
        "type": "Point",
        "coordinates": [
          -93.59418154370569,
          -52.78474620679233
        ]
      }
    },
    {
      "type": "Feature",
      "properties": {
        "norad_id": 66939,
        "name": "STARLINK-36154",
        "group": "last-30-days",
        "lat": -52.13307528758227,
        "lon": -87.4094601658768,
        "alt_km": 392.8070037561756,
        "timestamp": "2025-12-25T09:48:51.006986+00:00",
        "meta_object_name": "STARLINK-36154",
        "meta_object_id": "2025-286Q",
        "meta_epoch": "2025-12-25T04:00:01.998720",
        "meta_mean_motion": 15.61308311,
        "meta_eccentricity": 0.000117,
        "meta_inclination": 53.1599,
        "meta_ra_of_asc_node": 348.3953,
        "meta_arg_of_pericenter": 96.5524,
        "meta_mean_anomaly": 261.0032,
        "meta_ephemeris_type": 0,
        "meta_classification_type": "U",
        "meta_norad_cat_id": 66939,
        "meta_element_set_no": 999,
        "meta_rev_at_epoch": 398,
        "meta_bstar": -0.026696,
        "meta_mean_motion_dot": -0.02026346,
        "meta_mean_motion_ddot": 0,
        "tle_line1": "1 66939U 25286Q   25359.16668980 -.02026346  00000+0 -26696-1 0  9998",
        "tle_line2": "2 66939  53.1599 348.3953 0001170  96.5524 261.0032 15.61308311  3985"
      },
      "geometry": {
        "type": "Point",
        "coordinates": [
          -87.4094601658768,
          -52.13307528758227
        ]
      }
    }
  ]
}